STARLINK-4623           
1 55315U 23010AY  23036.91667824 -.00836140  00000+0 -68440-2 0  9999
2 55315  69.9999  20.0533 0003456 264.2603 230.3907 15.72634973  1301
STARLINK-5257           
1 55316U 23010AZ  23036.91667824  .00036237  00000+0  30223-3 0  9996
2 55316  70.0002  20.2234 0003069 263.7672  78.4114 15.69893688  1307
STARLINK-5265           
1 55317U 23010BA  23036.91667824 -.00845817  00000+0 -68747-2 0  9992
2 55317  69.9958  20.0320 0003360 262.0367 243.5674 15.72827488  1301
STARLINK-5180           
1 55318U 23010BB  23036.91667824 -.00846084  00000+0 -68709-2 0  9998
2 55318  69.9967  20.0299 0003825 265.0410 241.6532 15.72842830  1305
STARLINK-5196           
1 55319U 23010BC  23036.91667824 -.00845403  00000+0 -68632-2 0  9998
2 55319  69.9953  20.0300 0003525 263.4113 243.8263 15.72851975  1308
HAWK-6B                 
1 55324U 23011A   23036.88235641  .00007012  00000+0  48897-3 0  9995
2 55324  40.5095 211.5814 0003879 300.4021  59.6404 15.05551071  1798
ELECTRON KICK STAGE R/B 
1 55325U 23011B   23036.88232873  .00007166  00000+0  50017-3 0  9997
2 55325  40.5053 211.5781 0003568 272.3425  87.7025 15.05496356  1791
HAWK-6C                 
1 55326U 23011C   23036.88029189  .00001738  00000+0  12902-3 0  9992
2 55326  40.4920 211.5538 0003763 260.2266  99.8281 15.05774503  1791
HAWK-6A                 
1 55327U 23011D   23036.88012035  .00002609  00000+0  18825-3 0  9993
2 55327  40.5056 211.5588 0003821 267.9055  92.1312 15.05722962  1796
ELECTRON R/B            
1 55328U 23011E   23036.86189945  .00092522  00000+0  12284-2 0  9992
2 55328  40.4954 207.8160 0166194 213.1727 145.8750 15.42537219  1847
STARLINK-5492           
1 55331U 23013A   23036.91667824 -.00820005  00000+0 -37582-2 0  9996
2 55331  42.9995 340.1849 0005641 267.4885 139.6445 15.84657296  2122
STARLINK-5491           
1 55332U 23013B   23036.91667824  .00196992  22613-4  56050-3 0  9997
2 55332  42.9971 339.9515 0026214 234.6105 264.5103 15.91999528  2127
STARLINK-5493           
1 55333U 23013C   23036.91667824 -.00795229  00000+0 -36357-2 0  9996
2 55333  42.9996 340.1833 0005154 267.9826 139.8503 15.84657182  2128
STARLINK-5652           
1 55334U 23013D   23036.91667824 -.00806079  00000+0 -36908-2 0  9995
2 55334  42.9994 340.1841 0004846 268.2269 139.2440 15.84656589  2122
STARLINK-5660           
1 55335U 23013E   23036.91667824 -.00812831  00000+0 -37236-2 0  9994
2 55335  42.9995 340.1817 0002807 254.3379 154.1682 15.84688442  1306
STARLINK-5655           
1 55336U 23013F   23036.91667824 -.00741403  17943-3 -19005-2 0  9993
2 55336  42.9995 339.3973 0001924 275.1133  86.7260 15.94315019  2129
STARLINK-5667           
1 55337U 23013G   23036.91667824 -.00889353  24666-3 -23616-2 0  9994
2 55337  42.9996 339.8976 0025133 233.1575 286.4026 15.93094970  2129
STARLINK-5658           
1 55338U 23013H   23036.91667824 -.00804166  00000+0 -36802-2 0  9997
2 55338  42.9998 340.1803 0002399 266.2405 142.5784 15.84693003  2129
STARLINK-5671           
1 55339U 23013J   23036.91667824 -.00806136  00000+0 -36828-2 0  9995
2 55339  42.9996 340.1776 0002749 258.1331 152.0246 15.84729777  2121
STARLINK-5675           
1 55340U 23013K   23036.91667824 -.00801041  00000+0 -36495-2 0  9997
2 55340  42.9995 340.1768 0005742 267.3395 143.1625 15.84733693  1304
STARLINK-5670           
1 55341U 23013L   23036.91667824 -.00793215  00000+0 -36198-2 0  9991
2 55341  42.9998 340.1785 0003609 265.5474 144.2592 15.84711663  1303
STARLINK-5657           
1 55342U 23013M   23036.91667824 -.00806596  00000+0 -36817-2 0  9997
2 55342  42.9996 340.1761 0002729 256.4701 154.3340 15.84749000  1309
STARLINK-5661           
1 55343U 23013N   23036.91667824 -.00807928  00000+0 -36843-2 0  9997
2 55343  42.9995 340.1742 0002963 266.6217 144.8174 15.84768962  1300
STARLINK-5662           
1 55344U 23013P   23036.91667824 -.00801382  00000+0 -36542-2 0  9992
2 55344  42.9995 340.1750 0003012 256.1478 154.9921 15.84754279  2128
STARLINK-5653           
1 55345U 23013Q   23036.91667824 -.01000512  29948-3 -30621-2 0  9998
2 55345  42.9990 339.7230 0004883 267.8323 322.0876 15.90967487  2127
STARLINK-5631           
1 55346U 23013R   23036.91667824 -.00808192  00000+0 -36849-2 0  9990
2 55346  42.9996 340.1734 0002930 267.9974 143.9144 15.84773342  1308
STARLINK-5663           
1 55347U 23013S   23036.91667824 -.00815136  00000+0 -37047-2 0  9998
2 55347  42.9995 340.1697 0005656 267.6351 145.4751 15.84818166  1305
STARLINK-5609           
1 55348U 23013T   23036.91667824 -.00815753  00000+0 -37200-2 0  9995
2 55348  42.9999 340.1722 0002562 256.4714 155.6840 15.84791923  1304
STARLINK-5666           
1 55349U 23013U   23036.91667824 -.00802744  00000+0 -36482-2 0  9993
2 55349  42.9996 340.1715 0005578 268.0262 144.4208 15.84791352  1301
STARLINK-5668           
1 55350U 23013V   23036.91667824 -.00803336  00000+0 -36558-2 0  9997
2 55350  42.9995 340.1708 0002934 255.2857 157.5201 15.84800929  2125
STARLINK-5659           
1 55351U 23013W   23036.91667824 -.00820586  00000+0 -37249-2 0  9992
2 55351  42.9992 340.1662 0005586 267.7404 146.7296 15.84857290  1300
STARLINK-5547           
1 55352U 23013X   23036.91667824 -.00802346  00000+0 -36397-2 0  9990
2 55352  42.9995 340.1682 0005681 267.5157 146.2873 15.84826565  1302
STARLINK-5608           
1 55353U 23013Y   23036.91667824 -.00806316  00000+0 -36445-2 0  9996
2 55353  42.9993 340.1603 0005628 267.5821 149.1898 15.84911092  1302
STARLINK-5649           
1 55354U 23013Z   23036.91667824 -.00799393  00000+0 -36253-2 0  9990
2 55354  42.9997 340.1673 0005182 267.9700 146.1791 15.84833090  1309
STARLINK-5647           
1 55355U 23013AA  23036.91667824 -.00816834  00000+0 -37075-2 0  9994
2 55355  42.9993 340.1638 0003239 265.3771 150.0613 15.84883257  1305
STARLINK-5083           
1 55356U 23013AB  23036.91667824 -.00828286  00000+0 -37673-2 0  9993
2 55356  42.9995 340.1653 0002748 263.7593 151.0361 15.84873410  2125
STARLINK-5651           
1 55357U 23013AC  23036.91667824 -.00810067  00000+0 -36670-2 0  9998
2 55357  42.9993 340.1629 0005737 267.7811 147.9870 15.84887020  1305
STARLINK-5622           
1 55358U 23013AD  23036.91667824 -.00807705  00000+0 -36657-2 0  9999
2 55358  42.9996 340.1651 0002895 268.6728 146.4432 15.84867707  1301
STARLINK-5641           
1 55359U 23013AE  23036.91667824 -.00799423  00000+0 -36157-2 0  9992
2 55359  42.9996 340.1621 0005172 267.9883 148.1149 15.84888589  1309
STARLINK-5664           
1 55360U 23013AF  23036.91667824 -.00792764  00000+0 -35410-2 0  9996
2 55360  42.9996 340.1390 0004710 268.1373 157.1873 15.85136678  1308
STARLINK-5665           
1 55361U 23013AG  23036.91667824 -.00812434  00000+0 -36755-2 0  9997
2 55361  42.9994 340.1583 0002855 267.2295 150.5047 15.84944509  2122
STARLINK-5574           
1 55362U 23013AH  23036.91667824 -.00805679  00000+0 -36399-2 0  9995
2 55362  42.9996 340.1588 0005197 268.1747 149.3479 15.84926002  1306
STARLINK-5648           
1 55363U 23013AJ  23036.91667824 -.00801004  00000+0 -36187-2 0  9999
2 55363  42.9998 340.1570 0002958 281.2291 136.8524 15.84945174  1305
STARLINK-5627           
1 55364U 23013AK  23036.91667824 -.00808002  00000+0 -36541-2 0  9999
2 55364  42.9994 340.1613 0005666 267.6721 148.7685 15.84903309  2120
STARLINK-5639           
1 55365U 23013AL  23036.91667824 -.00791569  00000+0 -35630-2 0  9997
2 55365  42.9996 340.1546 0005443 268.3981 150.6687 15.84964891  2124
STARLINK-5654           
1 55366U 23013AM  23036.91667824 -.00799419  00000+0 -36100-2 0  9993
2 55366  42.9994 340.1595 0005494 268.0401 149.0449 15.84915986  1305
STARLINK-5635           
1 55367U 23013AN  23036.91667824 -.00798292  00000+0 -35957-2 0  9991
2 55367  43.0000 340.1544 0004660 268.7351 150.6682 15.84978335  1309
STARLINK-5625           
1 55368U 23013AP  23036.91667824 -.00808109  00000+0 -36520-2 0  9998
2 55368  42.9997 340.1564 0002500 255.3313 163.0752 15.84960284  1306
STARLINK-5644           
1 55369U 23013AQ  23036.91667824 -.00808461  00000+0 -36463-2 0  9996
2 55369  42.9995 340.1533 0002926 264.2405 155.4315 15.84997445  1303
STARLINK-5027           
1 55370U 23013AR  23036.91667824 -.00812349  00000+0 -36688-2 0  9997
2 55370  42.9995 340.1554 0003555 263.7848 154.9449 15.84971311  1308
STARLINK-5590           
1 55371U 23013AS  23036.91667824 -.00795826  00000+0 -35762-2 0  9990
2 55371  42.9994 340.1503 0005177 267.9869 152.7230 15.85013133  1307
STARLINK-5568           
1 55372U 23013AT  23036.91667824 -.00798730  00000+0 -35949-2 0  9995
2 55372  43.0000 340.1528 0004548 269.0005 151.0617 15.84996784  1303
STARLINK-5581           
1 55373U 23013AU  23036.91667824 -.00793914  00000+0 -35646-2 0  9999
2 55373  42.9994 340.1495 0005473 268.4039 152.6188 15.85021455  1300
STARLINK-5578           
1 55374U 23013AV  23036.91667824 -.00815452  00000+0 -36704-2 0  9998
2 55374  42.9996 340.1514 0005654 267.6191 152.7545 15.85018030  1309
STARLINK-5588           
1 55375U 23013AW  23036.91667824 -.00795196  00000+0 -35668-2 0  9999
2 55375  42.9994 340.1470 0005211 268.0463 153.9769 15.85048918  1304
STARLINK-5586           
1 55376U 23013AX  23036.91667824 -.00795017  00000+0 -35675-2 0  9990
2 55376  42.9995 340.1481 0005224 268.0574 153.6410 15.85039647  1304
STARLINK-5567           
1 55377U 23013AY  23036.91667824 -.00797165  00000+0 -35659-2 0  9999
2 55377  42.9995 340.1412 0005142 268.0854 156.3260 15.85110473  1309
STARLINK-5572           
1 55378U 23013AZ  23036.91667824 -.00805882  00000+0 -36270-2 0  9996
2 55378  42.9998 340.1487 0002418 257.0001 164.3664 15.85040308  1306
STARLINK-5569           
1 55379U 23013BA  23036.91667824 -.00800900  00000+0 -35878-2 0  9996
2 55379  42.9994 340.1436 0005130 268.0801 155.2362 15.85089688  2120
